{
  "type": "FeatureCollection",
  "features": [
    {
      "type": "Feature",
      "properties": {
        "norad_id": 39617,
        "name": "ASTRA 5B (EGNOS/PRN 123)",
        "group": "gnss",
        "lat": 0.07704149269982537,
        "lon": 153.68505436478017,
        "alt_km": 35792.84605302369,
        "timestamp": "2025-12-04T03:47:54.788087+00:00",
        "meta_object_name": "ASTRA 5B (EGNOS/PRN 123)",
        "meta_object_id": "2014-011B",
        "meta_epoch": "2025-12-02T22:27:31.551840",
        "meta_mean_motion": 1.00273626,
        "meta_eccentricity": 0.00048267,
        "meta_inclination": 0.0852,
        "meta_ra_of_asc_node": 55.731,
        "meta_arg_of_pericenter": 209.4642,
        "meta_mean_anomaly": 167.2528,
        "meta_ephemeris_type": 0,
        "meta_classification_type": "U",
        "meta_norad_cat_id": 39617,
        "meta_element_set_no": 999,
        "meta_rev_at_epoch": 4269,
        "meta_bstar": 0,
        "meta_mean_motion_dot": 1.57e-06,
        "meta_mean_motion_ddot": 0,
        "tle_line1": "1 39617U 14011B   25336.93578185  .00000157  00000+0  00000+0 0  9999",
        "tle_line2": "2 39617   0.0852  55.7310 0004826 209.4642 167.2528  1.00273626 42690"
      },
      "geometry": {
        "type": "Point",
        "coordinates": [
          153.68505436478017,
          0.07704149269982537
        ]
      }
    },
    {
      "type": "Feature",
      "properties": {
        "norad_id": 39620,
        "name": "COSMOS 2492 (754)",
        "group": "gnss",
        "lat": 22.291317304170793,
        "lon": -28.627154121209877,
        "alt_km": 19117.259675658213,
        "timestamp": "2025-12-04T03:47:54.788099+00:00",
        "meta_object_name": "COSMOS 2492 (754)",
        "meta_object_id": "2014-012A",
        "meta_epoch": "2025-12-02T17:14:30.403680",
        "meta_mean_motion": 2.13103072,
        "meta_eccentricity": 0.00141646,
        "meta_inclination": 65.4134,
        "meta_ra_of_asc_node": 320.6107,
        "meta_arg_of_pericenter": 311.0276,
        "meta_mean_anomaly": 48.8557,
        "meta_ephemeris_type": 0,
        "meta_classification_type": "U",
        "meta_norad_cat_id": 39620,
        "meta_element_set_no": 999,
        "meta_rev_at_epoch": 9105,
        "meta_bstar": 0,
        "meta_mean_motion_dot": -3.6e-07,
        "meta_mean_motion_ddot": 0,
        "tle_line1": "1 39620U 14012A   25336.71840745 -.00000036  00000+0  00000+0 0  9991",
        "tle_line2": "2 39620  65.4134 320.6107 0014164 311.0276  48.8557  2.13103072 91051"
      },
      "geometry": {
        "type": "Point",
        "coordinates": [
          -28.627154121209877,
          22.291317304170793
        ]
      }
    },
    {
      "type": "Feature",
      "properties": {
        "norad_id": 39635,
        "name": "IRNSS-1B",
        "group": "gnss",
        "lat": -24.286158962830342,
        "lon": -171.14649599436714,
        "alt_km": 35823.741546285586,
        "timestamp": "2025-12-04T03:47:54.788110+00:00",
        "meta_object_name": "IRNSS-1B",
        "meta_object_id": "2014-017A",
        "meta_epoch": "2025-12-02T19:49:18.476256",
        "meta_mean_motion": 1.00275376,
        "meta_eccentricity": 0.00176186,
        "meta_inclination": 28.8417,
        "meta_ra_of_asc_node": 243.7617,
        "meta_arg_of_pericenter": 183.0296,
        "meta_mean_anomaly": 357.4832,
        "meta_ephemeris_type": 0,
        "meta_classification_type": "U",
        "meta_norad_cat_id": 39635,
        "meta_element_set_no": 999,
        "meta_rev_at_epoch": 4282,
        "meta_bstar": 0,
        "meta_mean_motion_dot": 1.22e-06,
        "meta_mean_motion_ddot": 0,
        "tle_line1": "1 39635U 14017A   25336.82590829  .00000122  00000+0  00000+0 0  9994",
        "tle_line2": "2 39635  28.8417 243.7617 0017618 183.0296 357.4832  1.00275376 42829"
      },
      "geometry": {
        "type": "Point",
        "coordinates": [
          -171.14649599436714,
          -24.286158962830342
        ]
      }
    },
    {
      "type": "Feature",
      "properties": {
        "norad_id": 39727,
        "name": "LUCH 5V (SDCM/PRN 141)",
        "group": "gnss",
        "lat": 2.0581875060183266,
        "lon": -134.984257164908,
        "alt_km": 35772.4866772866,
        "timestamp": "2025-12-04T03:47:54.788124+00:00",
        "meta_object_name": "LUCH 5V (SDCM/PRN 141)",
        "meta_object_id": "2014-023A",
        "meta_epoch": "2025-12-03T07:21:08.652960",
        "meta_mean_motion": 1.00271893,
        "meta_eccentricity": 0.0004497,
        "meta_inclination": 4.6439,
        "meta_ra_of_asc_node": 71.6188,
        "meta_arg_of_pericenter": 198.8244,
        "meta_mean_anomaly": 7.0165,
        "meta_ephemeris_type": 0,
        "meta_classification_type": "U",
        "meta_norad_cat_id": 39727,
        "meta_element_set_no": 999,
        "meta_rev_at_epoch": 4239,
        "meta_bstar": 0,
        "meta_mean_motion_dot": -2.53e-06,
        "meta_mean_motion_ddot": 0,
        "tle_line1": "1 39727U 14023A   25337.30635015 -.00000253  00000+0  00000+0 0  9990",
        "tle_line2": "2 39727   4.6439  71.6188 0004497 198.8244   7.0165  1.00271893 42395"
      },
      "geometry": {
        "type": "Point",
        "coordinates": [
          -134.984257164908,
          2.0581875060183266
        ]
      }
    },
    {
      "type": "Feature",
      "properties": {
        "norad_id": 39741,
        "name": "GPS BIIF-6  (PRN 06)",
        "group": "gnss",
        "lat": 54.89693852497205,
        "lon": 89.17888110222579,
        "alt_km": 20258.68149163514,
        "timestamp": "2025-12-04T03:47:54.788136+00:00",
        "meta_object_name": "GPS BIIF-6  (PRN 06)",
        "meta_object_id": "2014-026A",
        "meta_epoch": "2025-12-02T00:33:52.454592",
        "meta_mean_motion": 2.0056192,
        "meta_eccentricity": 0.00388896,
        "meta_inclination": 56.5877,
        "meta_ra_of_asc_node": 339.1935,
        "meta_arg_of_pericenter": 318.1232,
        "meta_mean_anomaly": 41.6099,
        "meta_ephemeris_type": 0,
        "meta_classification_type": "U",
        "meta_norad_cat_id": 39741,
        "meta_element_set_no": 999,
        "meta_rev_at_epoch": 8458,
        "meta_bstar": 0,
        "meta_mean_motion_dot": -5.7e-07,
        "meta_mean_motion_ddot": 0,
        "tle_line1": "1 39741U 14026A   25336.02352378 -.00000057  00000+0  00000+0 0  9997",
        "tle_line2": "2 39741  56.5877 339.1935 0038889 318.1232  41.6099  2.00561920 84582"
      },
      "geometry": {
        "type": "Point",
        "coordinates": [
          89.17888110222579,
          54.89693852497205
        ]
      }
    },
    {
      "type": "Feature",
      "properties": {
        "norad_id": 40001,
        "name": "COSMOS 2500 (755)",
        "group": "gnss",
        "lat": -60.05040689487741,
        "lon": -166.82775638645217,
        "alt_km": 19118.303675371433,
        "timestamp": "2025-12-04T03:47:54.788150+00:00",
        "meta_object_name": "COSMOS 2500 (755)",
        "meta_object_id": "2014-032A",
        "meta_epoch": "2025-12-01T22:51:13.641408",
        "meta_mean_motion": 2.13105853,
        "meta_eccentricity": 0.00082978,
        "meta_inclination": 65.3495,
        "meta_ra_of_asc_node": 320.3998,
        "meta_arg_of_pericenter": 219.081,
        "meta_mean_anomaly": 140.8682,
        "meta_ephemeris_type": 0,
        "meta_classification_type": "U",
        "meta_norad_cat_id": 40001,
        "meta_element_set_no": 999,
        "meta_rev_at_epoch": 8925,
        "meta_bstar": 0,
        "meta_mean_motion_dot": -3.1e-07,
        "meta_mean_motion_ddot": 0,
        "tle_line1": "1 40001U 14032A   25335.95224122 -.00000031  00000+0  00000+0 0  9993",
        "tle_line2": "2 40001  65.3495 320.3998 0008297 219.0810 140.8682  2.13105853 89251"
      },
      "geometry": {
        "type": "Point",
        "coordinates": [
          -166.82775638645217,
          -60.05040689487741
        ]
      }
    },
    {
      "type": "Feature",
      "properties": {
        "norad_id": 40105,
        "name": "GPS BIIF-7  (PRN 09)",
        "group": "gnss",
        "lat": 30.20873664330638,
        "lon": 120.06716624611839,
        "alt_km": 20165.230205202657,
        "timestamp": "2025-12-04T03:47:54.788163+00:00",
        "meta_object_name": "GPS BIIF-7  (PRN 09)",
        "meta_object_id": "2014-045A",
        "meta_epoch": "2025-12-02T02:40:49.418112",
        "meta_mean_motion": 2.00571797,
        "meta_eccentricity": 0.00329353,
        "meta_inclination": 55.2223,
        "meta_ra_of_asc_node": 96.323,
        "meta_arg_of_pericenter": 119.6015,
        "meta_mean_anomaly": 240.7039,
        "meta_ephemeris_type": 0,
        "meta_classification_type": "U",
        "meta_norad_cat_id": 40105,
        "meta_element_set_no": 999,
        "meta_rev_at_epoch": 8212,
        "meta_bstar": 0,
        "meta_mean_motion_dot": 7e-08,
        "meta_mean_motion_ddot": 0,
        "tle_line1": "1 40105U 14045A   25336.11168308  .00000007  00000+0  00000+0 0  9996",
        "tle_line2": "2 40105  55.2223  96.3230 0032935 119.6015 240.7039  2.00571797 82125"
      },
      "geometry": {
        "type": "Point",
        "coordinates": [
          120.06716624611839,
          30.20873664330638
        ]
      }
    }
  ]
}